start=new Date('2022-12-06T00:00:00.000Z').valueOf();
sats=[{"OBJECT_TYPE":"PAYLOAD","GP_ID":"219627162","RCS_SIZE":"LARGE","LAUNCH_DATE":"2022-05-14","FILE":"3682465","TIME_SYSTEM":"UTC","SITE":"AFETR","ELEMENT_SET_NO":"999","INCLINATION":"53.2176","EPHEMERIS_TYPE":"0","DECAY_DATE":null,"APOAPSIS":"541.541","EPOCH":"2022-12-05T19:45:16.269408","TLE_LINE1":"1 52614U 22052S   22339.82310497  .00003724  00000-0  25193-3 0  9991","REV_AT_EPOCH":"3136","COUNTRY_CODE":"US","ECCENTRICITY":"0.00026340","MEAN_ELEMENT_THEORY":"SGP4","MEAN_MOTION_DOT":"0.00003724","NORAD_CAT_ID":"52614","CLASSIFICATION_TYPE":"U","CENTER_NAME":"EARTH","TLE_LINE2":"2 52614  53.2176 210.6396 0002634  34.1295 325.9866 15.08848622 31366","RA_OF_ASC_NODE":"210.6396","SEMIMAJOR_AXIS":"6917.854","ARG_OF_PERICENTER":"34.1295","MEAN_ANOMALY":"325.9866","OBJECT_ID":"2022-052S","MEAN_MOTION":"15.08848622","BSTAR":"0.00025193000000","REF_FRAME":"TEME","MEAN_MOTION_DDOT":"0.0000000000000","PERIAPSIS":"537.897","OBJECT_NAME":"STARLINK-3982","PERIOD":"95.437"},{"MEAN_ANOMALY":"330.7538","ARG_OF_PERICENTER":"29.3617","SEMIMAJOR_AXIS":"6917.897","PERIOD":"95.438","OBJECT_NAME":"STARLINK-4011","PERIAPSIS":"537.751","REF_FRAME":"TEME","MEAN_MOTION_DDOT":"0.0000000000000","BSTAR":"0.00011226000000","MEAN_MOTION":"15.08834717","OBJECT_ID":"2022-052T","NORAD_CAT_ID":"52615","MEAN_MOTION_DOT":"0.00001498","MEAN_ELEMENT_THEORY":"SGP4","ECCENTRICITY":"0.00029070","RA_OF_ASC_NODE":"227.5004","TLE_LINE2":"2 52615  53.2179 227.5004 0002907  29.3617 330.7538 15.08834717 31089","CENTER_NAME":"EARTH","CLASSIFICATION_TYPE":"U","APOAPSIS":"541.773","DECAY_DATE":null,"INCLINATION":"53.2179","EPHEMERIS_TYPE":"0","TLE_LINE1":"1 52615U 22052T   22339.40773029  .00001498  00000-0  11226-3 0  9998","REV_AT_EPOCH":"3108","COUNTRY_CODE":"US","EPOCH":"2022-12-05T09:47:07.897056","LAUNCH_DATE":"2022-05-14","RCS_SIZE":"LARGE","GP_ID":"219597547","OBJECT_TYPE":"PAYLOAD","SITE":"AFETR","ELEMENT_SET_NO":"999","TIME_SYSTEM":"UTC","FILE":"3682099"},{"TIME_SYSTEM":"UTC","ELEMENT_SET_NO":"999","SITE":"AFETR","FILE":"3682465","RCS_SIZE":"LARGE","LAUNCH_DATE":"2022-05-14","OBJECT_TYPE":"PAYLOAD","GP_ID":"219628158","TLE_LINE1":"1 52616U 22052U   22339.81574692  .00003334  00000-0  22747-3 0  9990","REV_AT_EPOCH":"3136","COUNTRY_CODE":"US","EPOCH":"2022-12-05T19:34:40.533888","APOAPSIS":"541.694","EPHEMERIS_TYPE":"0","INCLINATION":"53.2168","DECAY_DATE":null,"TLE_LINE2":"2 52616  53.2168 210.6731 0002824  34.7396 325.3780 15.08841722 31364","RA_OF_ASC_NODE":"210.6731","CLASSIFICATION_TYPE":"U","CENTER_NAME":"EARTH","MEAN_ELEMENT_THEORY":"SGP4","MEAN_MOTION_DOT":"0.00003334","NORAD_CAT_ID":"52616","ECCENTRICITY":"0.00028240","MEAN_MOTION_DDOT":"0.0000000000000","REF_FRAME":"TEME","PERIAPSIS":"537.787","OBJECT_NAME":"STARLINK-4015","PERIOD":"95.437","OBJECT_ID":"2022-052U","MEAN_MOTION":"15.08841722","BSTAR":"0.00022747000000","ARG_OF_PERICENTER":"34.7396","MEAN_ANOMALY":"325.3780","SEMIMAJOR_AXIS":"6917.875"},{"TIME_SYSTEM":"UTC","SITE":"AFETR","ELEMENT_SET_NO":"999","FILE":"3682465","RCS_SIZE":"LARGE","LAUNCH_DATE":"2022-05-14","OBJECT_TYPE":"PAYLOAD","GP_ID":"219626912","TLE_LINE1":"1 52617U 22052V   22339.80838581  .00002096  00000-0  14975-3 0  9998","REV_AT_EPOCH":"3135","COUNTRY_CODE":"US","EPOCH":"2022-12-05T19:24:04.533984","APOAPSIS":"541.372","INCLINATION":"53.2159","EPHEMERIS_TYPE":"0","DECAY_DATE":null,"TLE_LINE2":"2 52617  53.2159 210.6989 0002387  36.6305 323.4850 15.08848218 31358","RA_OF_ASC_NODE":"210.6989","CLASSIFICATION_TYPE":"U","CENTER_NAME":"EARTH","MEAN_MOTION_DOT":"0.00002096","MEAN_ELEMENT_THEORY":"SGP4","NORAD_CAT_ID":"52617","ECCENTRICITY":"0.00023870","MEAN_MOTION_DDOT":"0.0000000000000","REF_FRAME":"TEME","PERIAPSIS":"538.069","OBJECT_NAME":"STARLINK-3996","PERIOD":"95.437","OBJECT_ID":"2022-052V","MEAN_MOTION":"15.08848218","BSTAR":"0.00014975000000","ARG_OF_PERICENTER":"36.6305","MEAN_ANOMALY":"323.4850","SEMIMAJOR_AXIS":"6917.855"},{"RA_OF_ASC_NODE":"210.6963","TLE_LINE2":"2 52618  53.2161 210.6963 0002186  46.7147 313.4027 15.08845062 31356","CENTER_NAME":"EARTH","CLASSIFICATION_TYPE":"U","NORAD_CAT_ID":"52618","MEAN_MOTION_DOT":"0.00001617","MEAN_ELEMENT_THEORY":"SGP4","ECCENTRICITY":"0.00021860","PERIOD":"95.437","OBJECT_NAME":"STARLINK-3983","PERIAPSIS":"538.218","REF_FRAME":"TEME","MEAN_MOTION_DDOT":"0.0000000000000","BSTAR":"0.00011965000000","MEAN_MOTION":"15.08845062","OBJECT_ID":"2022-052W","MEAN_ANOMALY":"313.4027","ARG_OF_PERICENTER":"46.7147","SEMIMAJOR_AXIS":"6917.865","ELEMENT_SET_NO":"999","SITE":"AFETR","TIME_SYSTEM":"UTC","FILE":"3682465","LAUNCH_DATE":"2022-05-14","RCS_SIZE":"LARGE","GP_ID":"219627663","OBJECT_TYPE":"PAYLOAD","TLE_LINE1":"1 52618U 22052W   22339.81206734  .00001617  00000-0  11965-3 0  9993","REV_AT_EPOCH":"3135","COUNTRY_CODE":"US","EPOCH":"2022-12-05T19:29:22.618176","APOAPSIS":"541.242","DECAY_DATE":null,"EPHEMERIS_TYPE":"0","INCLINATION":"53.2161"},{"COUNTRY_CODE":"US","TLE_LINE1":"1 52619U 22052X   22339.80565727  .00001593  00000-0  11816-3 0  9991","REV_AT_EPOCH":"3135","EPOCH":"2022-12-05T19:20:08.788128","APOAPSIS":"541.716","DECAY_DATE":null,"EPHEMERIS_TYPE":"0","INCLINATION":"53.2176","SITE":"AFETR","ELEMENT_SET_NO":"999","TIME_SYSTEM":"UTC","FILE":"3682465","LAUNCH_DATE":"2022-05-14","RCS_SIZE":"LARGE","GP_ID":"219628410","OBJECT_TYPE":"PAYLOAD","PERIOD":"95.437","OBJECT_NAME":"STARLINK-3741","PERIAPSIS":"537.750","MEAN_MOTION_DDOT":"0.0000000000000","REF_FRAME":"TEME","BSTAR":"0.00011816000000","MEAN_MOTION":"15.08844104","OBJECT_ID":"2022-052X","MEAN_ANOMALY":"323.8769","ARG_OF_PERICENTER":"36.2417","SEMIMAJOR_AXIS":"6917.868","RA_OF_ASC_NODE":"210.7304","TLE_LINE2":"2 52619  53.2176 210.7304 0002866  36.2417 323.8769 15.08844104 31356","CENTER_NAME":"EARTH","CLASSIFICATION_TYPE":"U","NORAD_CAT_ID":"52619","MEAN_ELEMENT_THEORY":"SGP4","MEAN_MOTION_DOT":"0.00001593","ECCENTRICITY":"0.00028660"},{"MEAN_ELEMENT_THEORY":"SGP4","MEAN_MOTION_DOT":"0.00001399","NORAD_CAT_ID":"52620","ECCENTRICITY":"0.00025720","TLE_LINE2":"2 52620  53.2166 227.5200 0002572  26.7829 333.3295 15.08835006 31084","RA_OF_ASC_NODE":"227.5200","CLASSIFICATION_TYPE":"U","CENTER_NAME":"EARTH","ARG_OF_PERICENTER":"26.7829","MEAN_ANOMALY":"333.3295","SEMIMAJOR_AXIS":"6917.896","REF_FRAME":"TEME","MEAN_MOTION_DDOT":"0.0000000000000","PERIAPSIS":"537.981","OBJECT_NAME":"STARLINK-3975","PERIOD":"95.438","OBJECT_ID":"2022-052Y","MEAN_MOTION":"15.08835006","BSTAR":"0.00010601000000","RCS_SIZE":"LARGE","LAUNCH_DATE":"2022-05-14","OBJECT_TYPE":"PAYLOAD","GP_ID":"219597291","TIME_SYSTEM":"UTC","ELEMENT_SET_NO":"999","SITE":"AFETR","FILE":"3682099","APOAPSIS":"541.540","INCLINATION":"53.2166","EPHEMERIS_TYPE":"0","DECAY_DATE":null,"TLE_LINE1":"1 52620U 22052Y   22339.40404533  .00001399  00000-0  10601-3 0  9991","COUNTRY_CODE":"US","REV_AT_EPOCH":"3108","EPOCH":"2022-12-05T09:41:49.516512"},{"NORAD_CAT_ID":"52621","MEAN_MOTION_DOT":"0.00001661","MEAN_ELEMENT_THEORY":"SGP4","ECCENTRICITY":"0.00026610","TLE_LINE2":"2 52621  53.2162 210.7636 0002661  34.9345 325.1821 15.08843161 31356","RA_OF_ASC_NODE":"210.7636","CLASSIFICATION_TYPE":"U","CENTER_NAME":"EARTH","MEAN_ANOMALY":"325.1821","ARG_OF_PERICENTER":"34.9345","SEMIMAJOR_AXIS":"6917.871","PERIOD":"95.437","REF_FRAME":"TEME","MEAN_MOTION_DDOT":"0.0000000000000","OBJECT_NAME":"STARLINK-3984","PERIAPSIS":"537.895","MEAN_MOTION":"15.08843161","BSTAR":"0.00012242000000","OBJECT_ID":"2022-052Z","RCS_SIZE":"LARGE","LAUNCH_DATE":"2022-05-14","GP_ID":"219627413","OBJECT_TYPE":"PAYLOAD","SITE":"AFETR","ELEMENT_SET_NO":"999","TIME_SYSTEM":"UTC","FILE":"3682465","APOAPSIS":"541.577","INCLINATION":"53.2162","EPHEMERIS_TYPE":"0","DECAY_DATE":null,"REV_AT_EPOCH":"3135","TLE_LINE1":"1 52621U 22052Z   22339.79733856  .00001661  00000-0  12242-3 0  9992","COUNTRY_CODE":"US","EPOCH":"2022-12-05T19:08:10.051584"},{"SEMIMAJOR_AXIS":"6917.859","MEAN_ANOMALY":"305.8359","ARG_OF_PERICENTER":"54.2803","BSTAR":"0.00023502000000","MEAN_MOTION":"15.08846851","OBJECT_ID":"2022-052AA","PERIOD":"95.437","OBJECT_NAME":"STARLINK-4008","PERIAPSIS":"538.461","REF_FRAME":"TEME","MEAN_MOTION_DDOT":"0.0000000000000","ECCENTRICITY":"0.00018260","NORAD_CAT_ID":"52622","MEAN_MOTION_DOT":"0.00003455","MEAN_ELEMENT_THEORY":"SGP4","CENTER_NAME":"EARTH","CLASSIFICATION_TYPE":"U","RA_OF_ASC_NODE":"225.6097","TLE_LINE2":"2 52622  53.2168 225.6097 0001826  54.2803 305.8359 15.08846851 31153","DECAY_DATE":null,"INCLINATION":"53.2168","EPHEMERIS_TYPE":"0","APOAPSIS":"540.988","EPOCH":"2022-12-05T19:56:32.017632","TLE_LINE1":"1 52622U 22052AA  22339.83092613  .00003455  00000-0  23502-3 0  9991","COUNTRY_CODE":"US","REV_AT_EPOCH":"3115","GP_ID":"219627163","OBJECT_TYPE":"PAYLOAD","LAUNCH_DATE":"2022-05-14","RCS_SIZE":"LARGE","FILE":"3682465","ELEMENT_SET_NO":"999","SITE":"AFETR","TIME_SYSTEM":"UTC"},{"NORAD_CAT_ID":"52623","MEAN_MOTION_DOT":"0.00002224","MEAN_ELEMENT_THEORY":"SGP4","ECCENTRICITY":"0.00031710","RA_OF_ASC_NODE":"210.7796","TLE_LINE2":"2 52623  53.2149 210.7796 0003171  40.1879 319.9347 15.08847019 31358","CENTER_NAME":"EARTH","CLASSIFICATION_TYPE":"U","MEAN_ANOMALY":"319.9347","ARG_OF_PERICENTER":"40.1879","SEMIMAJOR_AXIS":"6917.859","PERIOD":"95.437","PERIAPSIS":"537.530","OBJECT_NAME":"STARLINK-3986","REF_FRAME":"TEME","MEAN_MOTION_DDOT":"0.0000000000000","BSTAR":"0.00015778000000","MEAN_MOTION":"15.08847019","OBJECT_ID":"2022-052AB","LAUNCH_DATE":"2022-05-14","RCS_SIZE":"LARGE","GP_ID":"219627911","OBJECT_TYPE":"PAYLOAD","ELEMENT_SET_NO":"999","SITE":"AFETR","TIME_SYSTEM":"UTC","FILE":"3682465","APOAPSIS":"541.918","DECAY_DATE":null,"EPHEMERIS_TYPE":"0","INCLINATION":"53.2149","REV_AT_EPOCH":"3135","TLE_LINE1":"1 52623U 22052AB  22339.79366548  .00002224  00000-0  15778-3 0  9997","COUNTRY_CODE":"US","EPOCH":"2022-12-05T19:02:52.697472"}];
